COMMENT,ORIGINATOR,NORAD_CAT_ID,OBJECT_NAME,OBJECT_TYPE,CLASSIFICATION_TYPE,INTLDES,EPOCH,EPOCH_MICROSECONDS,MEAN_MOTION,ECCENTRICITY,INCLINATION,RA_OF_ASC_NODE,ARG_OF_PERICENTER,MEAN_ANOMALY,EPHEMERIS_TYPE,ELEMENT_SET_NO,REV_AT_EPOCH,BSTAR,MEAN_MOTION_DOT,MEAN_MOTION_DDOT,FILE,TLE_LINE0,TLE_LINE1,TLE_LINE2,OBJECT_ID,OBJECT_NUMBER,SEMIMAJOR_AXIS,PERIOD,APOGEE,PERIGEE,DECAYED
"GENERATED VIA SPACETRACK.ORG API","18 SPCS","47950","OBJECT U","TBA","U","21022U","2021-11-01 03:51:35","474400","15.06023136","0.0020782","97.5415","204.4239","204.001","298.9557","0","999","3362","0.00019138","0.00002742","0","3195398","0 OBJECT U","1 47950U 21022U   21305.16082725  .00002742  00000-0  19138-3 0  9994","2 47950  97.5415 204.4239 0020782 204.0010 298.9557 15.06023136 33624","2021-022U","47950","6926.504","95.616","562.763","533.974","0"
"GENERATED VIA SPACETRACK.ORG API","18 SPCS","47950","OBJECT U","TBA","U","21022U","2021-11-01 11:58:19","515936","15.06025941","0.0020773","97.5418","204.755","202.6763","331.7169","0","999","3367","0.0001985","0.00002846","0","3196108","0 OBJECT U","1 47950U 21022U   21305.49883699  .00002846  00000-0  19850-3 0  9995","2 47950  97.5418 204.7550 0020773 202.6763 331.7169 15.06025941 33671","2021-022U","47950","6926.495","95.616","562.749","533.972","0"
"GENERATED VIA SPACETRACK.ORG API","18 SPCS","47950","OBJECT U","TBA","U","21022U","2021-11-01 11:58:19","515936","15.06025941","0.0020773","97.5418","204.755","202.6763","331.7169","0","999","3367","0.0001985","0.00002846","0","3196301","0 OBJECT U","1 47950U 21022U   21305.49883699  .00002846  00000-0  19850-3 0  9995","2 47950  97.5418 204.7550 0020773 202.6763 331.7169 15.06025941 33671","2021-022U","47950","6926.495","95.616","562.749","533.972","0"
"GENERATED VIA SPACETRACK.ORG API","18 SPCS","47950","OBJECT U","TBA","U","21022U","2021-11-01 19:29:49","992288","15.06028886","0.0020843","97.5415","205.062","201.6719","231.617","0","999","3372","0.00020764","0.00002981","0","3196786","0 OBJECT U","1 47950U 21022U   21305.81238417  .00002981  00000-0  20764-3 0  9999","2 47950  97.5415 205.0620 0020843 201.6719 231.6170 15.06028886 33725","2021-022U","47950","6926.486","95.616","562.788","533.914","0"
"GENERATED VIA SPACETRACK.ORG API","18 SPCS","47950","OBJECT U","TBA","U","21022U","2021-11-01 22:55:57","600192","15.06030021","0.0020894","97.5416","205.2017","201.1582","287.7268","0","999","3374","0.00021005","0.00003016","0","3196819","0 OBJECT U","1 47950U 21022U   21305.95552778  .00003016  00000-0  21005-3 0  9992","2 47950  97.5416 205.2017 0020894 201.1582 287.7268 15.06030021 33743","2021-022U","47950","6926.483","95.616","562.820","533.876","0"
"GENERATED VIA SPACETRACK.ORG API","18 SPCS","47950","OBJECT U","TBA","U","21022U","2021-11-02 03:51:34","975872","15.06031823","0.0020946","97.5416","205.4028","200.3787","320.8533","0","999","3377","0.00021415","0.00003076","0","3197031","0 OBJECT U","1 47950U 21022U   21306.16082148  .00003076  00000-0  21415-3 0  9996","2 47950  97.5416 205.4028 0020946 200.3787 320.8533 15.06031823 33771","2021-022U","47950","6926.477","95.616","562.850","533.834","0"
"GENERATED VIA SPACETRACK.ORG API","18 SPCS","47950","OBJECT U","TBA","U","21022U","2021-11-02 14:30:21","734208","15.06035842","0.00209","97.542","205.8373","198.6459","206.1374","0","999","3384","0.00022478","0.00003233","0","3197731","0 OBJECT U","1 47950U 21022U   21306.60441822  .00003233  00000-0  22478-3 0  9998","2 47950  97.5420 205.8373 0020900 198.6459 206.1374 15.06035842 33840","2021-022U","47950","6926.465","95.615","562.806","533.854","0"
"GENERATED VIA SPACETRACK.ORG API","18 SPCS","47950","OBJECT U","TBA","U","21022U","2021-11-02 14:30:21","734208","15.06035842","0.00209","97.542","205.8373","198.6459","206.1374","0","999","3384","0.00022478","0.00003233","0","3197830","0 OBJECT U","1 47950U 21022U   21306.60441822  .00003233  00000-0  22478-3 0  9998","2 47950  97.5420 205.8373 0020900 198.6459 206.1374 15.06035842 33840","2021-022U","47950","6926.465","95.615","562.806","533.854","0"
"GENERATED VIA SPACETRACK.ORG API","18 SPCS","47950","OBJECT U","TBA","U","21022U","2021-11-02 17:49:15","494016","15.06036989","0.0020886","97.5421","205.9724","198.1985","234.9761","0","999","3386","0.00022708","0.00003267","0","3198198","0 OBJECT U","1 47950U 21022U   21306.74254044  .00003267  00000-0  22708-3 0  9994","2 47950  97.5421 205.9724 0020886 198.1985 234.9761 15.06036989 33868","2021-022U","47950","6926.461","95.615","562.793","533.860","0"
"GENERATED VIA SPACETRACK.ORG API","18 SPCS","47950","OBJECT U","TBA","U","21022U","2021-11-02 22:32:48","228576","15.06038509","0.0020951","97.5423","206.1648","197.5202","222.5602","0","999","3389","0.00022906","0.00003296","0","3198350","0 OBJECT U","1 47950U 21022U   21306.93944709  .00003296  00000-0  22906-3 0  9991","2 47950  97.5423 206.1648 0020951 197.5202 222.5602 15.06038509 33896","2021-022U","47950","6926.457","95.615","562.833","533.810","0"
"GENERATED VIA SPACETRACK.ORG API","18 SPCS","47950","OBJECT U","TBA","U","21022U","2021-11-03 01:57:08","16192","15.06039708","0.0020943","97.5424","206.3037","196.9643","271.9553","0","999","3391","0.00023097","0.00003324","0","3198854","0 OBJECT U","1 47950U 21022U   21307.08134278  .00003324  00000-0  23097-3 0  9994","2 47950  97.5424 206.3037 0020943 196.9643 271.9553 15.06039708 33912","2021-022U","47950","6926.453","95.615","562.824","533.812","0"
"GENERATED VIA SPACETRACK.ORG API","18 SPCS","47950","OBJECT U","TBA","U","21022U","2021-11-03 09:58:28","876800","15.06042425","0.0020965","97.5428","206.6311","195.762","284.3438","0","999","3396","0.00023484","0.00003381","0","3199541","0 OBJECT U","1 47950U 21022U   21307.41561200  .00003381  00000-0  23484-3 0  9993","2 47950  97.5428 206.6311 0020965 195.7620 284.3438 15.06042425 33965","2021-022U","47950","6926.445","95.615","562.831","533.788","0"
"GENERATED VIA SPACETRACK.ORG API","18 SPCS","47950","OBJECT U","TBA","U","21022U","2021-11-03 14:36:25","389216","15.06044277","0.0020996","97.5428","206.8203","194.9816","250.9499","0","999","3399","0.00023977","0.00003453","0","3199758","0 OBJECT U","1 47950U 21022U   21307.60862719  .00003453  00000-0  23977-3 0  9990","2 47950  97.5428 206.8203 0020996 194.9816 250.9499 15.06044277 33995","2021-022U","47950","6926.439","95.615","562.847","533.761","0"
"GENERATED VIA SPACETRACK.ORG API","18 SPCS","47950","OBJECT U","TBA","U","21022U","2021-11-03 17:47:45","624192","15.06045433","0.0020978","97.5429","206.9505","194.4909","251.3945","0","999","3401","0.00024204","0.00003487","0","3200118","0 OBJECT U","1 47950U 21022U   21307.74150028  .00003487  00000-0  24204-3 0  9999","2 47950  97.5429 206.9505 0020978 194.4909 251.3945 15.06045433 34010","2021-022U","47950","6926.435","95.615","562.831","533.770","0"
"GENERATED VIA SPACETRACK.ORG API","18 SPCS","47950","OBJECT U","TBA","U","21022U","2021-11-03 22:28:08","277888","15.06046864","0.0020986","97.543","207.1409","193.8245","227.0509","0","999","3404","0.00024251","0.00003494","0","3200165","0 OBJECT U","1 47950U 21022U   21307.93620692  .00003494  00000-0  24251-3 0  9999","2 47950  97.5430 207.1409 0020986 193.8245 227.0509 15.06046864 34041","2021-022U","47950","6926.431","95.615","562.832","533.760","0"
"GENERATED VIA SPACETRACK.ORG API","18 SPCS","47950","OBJECT U","TBA","U","21022U","2021-11-04 05:15:02","994624","15.06048931","0.0020996","97.5431","207.4177","192.8586","319.1258","0","999","3408","0.0002431","0.00003503","0","3200542","0 OBJECT U","1 47950U 21022U   21308.21878466  .00003503  00000-0  24310-3 0  9992","2 47950  97.5431 207.4177 0020996 192.8586 319.1258 15.06048931 34080","2021-022U","47950","6926.425","95.614","562.832","533.747","0"
